#aV2019  3 12  0  0  0.00000000     288 DD+AD WGS84 FIT  NGA
## 2044 172800.00000000   300.00000000 58554 0.0000000000000
+   31     1  2  3  5  6  7  8  9 10 11 12 13 14 15 16 17 18
+         19 20 21 22 23 24 25 26 27 28 29 30 31 32  0  0  0
+          0  0  0  0  0  0  0  0  0  0  0  0  0  0  0  0  0
+          0  0  0  0  0  0  0  0  0  0  0  0  0  0  0  0  0
+          0  0  0  0  0  0  0  0  0  0  0  0  0  0  0  0  0
++         2  2  2  2  2  2  2  2  2  2  2  2  2  2  2  2  2
++         2  2  2  2  2  2  2  2  2  2  2  2  2  2  0  0  0
++         0  0  0  0  0  0  0  0  0  0  0  0  0  0  0  0  0
++         0  0  0  0  0  0  0  0  0  0  0  0  0  0  0  0  0
++         0  0  0  0  0  0  0  0  0  0  0  0  0  0  0  0  0
%c cc cc ccc ccc cccc cccc cccc cccc ccccc ccccc ccccc ccccc
%c cc cc ccc ccc cccc cccc cccc cccc ccccc ccccc ccccc ccccc
%f  0.0000000  0.000000000  0.00000000000  0.000000000000000
%f  0.0000000  0.000000000  0.00000000000  0.000000000000000
%i    0    0    0    0      0      0      0      0         0
%i    0    0    0    0      0      0      0      0         0
/*      NGA, ST. LOUIS,MO.                                  
/*   EPHEMERIS COMPUTED FROM 2 DAYS OF DATA                 
/*   EPOCHA v3 SMOOTHER                                     
/*   G1762 IERS2010 SATAF SATAPC                            
*  2019  3 12  5 50  0.00000000
P  1  11233.363004  13450.843438 -20224.635564   -179.132397                    
V  1 -25140.044165   1405.097200 -12831.930663     -0.074678                    
P  2  12938.257013 -14489.581065  18642.900839   -161.334222                    
V  2  22579.096399   -531.175051 -16801.168585     -0.097008                    
P  3  12459.782243  23381.573368  -2419.555672    186.139565                    
V  3  -3869.974429  -1163.336747 -31549.473370      0.011378                    
P  5   2879.637964 -19130.914237  17989.992509      1.173064                    
V  5  14272.752202  18378.372305  17347.032304      0.000332                    
P  6  23241.249794  -7789.470975  10311.402748    257.115949                    
V  6  13058.926131   1649.193204 -28285.954412     -0.087474                    
P  7  23285.921429   7511.349650  11139.210441     16.572771                    
V  7 -13587.475717   2360.978570  26964.229532     -0.073370                    
P  8  -3868.176609  23748.939502 -10977.703942   -135.843106                    
V  8  -8555.778277  11398.390793  27758.638904     -0.014150                    
P  9  13606.048492   7141.346615  21619.201720    446.488680                    
V  9 -12723.728840  24476.795891    -88.620545     -0.057526                    
P 10 -17382.549499  -1559.113663 -20019.128633     99.123402                    
V 10 -12609.754452 -22171.072901  12448.636132     -0.084611                    
P 11   5651.687722  15689.763572 -21219.625027   -646.491055                    
V 11 -23214.099393  11599.585608   2215.307051      0.065353                    
P 12  -9923.817772 -24447.340722  -4027.043070    260.874391                    
V 12   3916.654647   3373.029089 -31598.784500     -0.032573                    
P 13  12053.812304 -23118.719404  -5076.582184    -72.021319                    
V 13   5701.487615  -3687.542381  31074.873497      0.013776                    
P 14 -18327.788956  16505.879172  -9298.955279    -88.658689                    
V 14   4327.066427 -11845.544503 -28786.806179      0.013949                    
P 15   -325.667498 -23334.365350 -12569.632714   -323.952341                    
V 15   9210.882066 -13241.170094  25245.715678      0.018373                    
P 16  -2910.729098  19637.637522  17243.078937    -24.814639                    
V 16 -11519.656100 -19235.172417  20179.384913     -0.026223                    
P 17  18313.364084  -8915.551376 -16589.448054     22.158370                    
V 17 -10019.540271  19458.682143 -21093.201693      0.056120                    
P 18    242.878538  15632.133686 -21952.656028     34.020615                    
V 18 -26694.940654   1938.817516   1248.550338      0.035619                    
P 19  18941.291973 -15717.369795 -10400.544024   -343.257954                    
V 19  -5638.400959  11527.814989 -28403.593829      0.042636                    
P 20 -20749.559321  -9695.335608 -13675.614866    523.012240                    
V 20  -8549.211506 -15195.674563  23789.753552      0.003555                    
P 21 -24931.698349  -4137.690195   8758.158940   -234.155317                    
V 21   9789.109602  -3786.178970  28867.888278      0.073743                    
P 22   8002.299711  23392.729863  -9541.872872   -662.509092                    
V 22 -10121.142863  -8114.049074 -27632.180942     -0.076136                    
P 23   6517.556876  17510.653987  19040.637190   -194.338278                    
V 23 -12383.770223  20296.111159 -15081.670489      0.013688                    
P 24  -7132.789010 -14866.840515 -21025.883095    -63.259032                    
V 24  26241.181458  -2704.590325  -6714.671875     -0.004566                    
P 25 -17198.659736 -19200.320933   6742.147681   -731.943991                    
V 25  -2710.828423  -8615.701356 -30270.875195     -0.050163                    
P 26 -10527.729772  11683.953150  21366.983498    146.924412                    
V 26 -15334.802355 -22500.192300   4918.122309      0.101386                    
P 27 -11662.477145  23651.846730  -1247.074310    -84.407649                    
V 27  -2902.671654    130.500983  32293.365845     -0.079015                    
P 28  16712.161824   4253.692927 -19564.991428    766.162167                    
V 28  10727.630552  23886.821508  14017.225354      0.006362                    
P 29  -9088.984466 -12474.841934  21589.703373    251.341725                    
V 29  14854.283555 -23031.604852  -7041.463730     -0.087658                    
P 30  26656.872240    305.646870    -90.473461    -66.991608                    
V 30     86.516859   3284.588184  31198.705699     -0.065992                    
P 31 -22982.951497   7893.975104  11230.008101     52.771334                    
V 31 -14107.143853  -2078.896581 -26976.999324     -0.026569                    
P 32 -18257.776413  11989.437250 -14989.672660   -185.343434                    
V 32   6986.656401 -17984.427000 -22933.945438      0.186287                    
EOF
